FUNCUBE-1 (AO-73)       
1 39444U 13066AE  24174.84602586  .00006068  00000+0  58704-3 0  9993
2 39444  97.7202 133.8253 0049851 121.0470 239.5657 14.92188370571542
UWE-3                   
1 39446U 13066AG  24174.83948142  .00002949  00000+0  33175-3 0  9994
2 39446  97.7814 124.4585 0059688 199.3652 160.5296 14.86164778569544
BRITE-CA1 (TORONTO)     
1 40020U 14033L   24174.94500540  .00001382  00000+0  22893-3 0  9992
2 40020  97.8783 311.8647 0084331  74.1339 286.9142 14.69475649535826
DUCHIFAT-1              
1 40021U 14033M   24174.93592432  .00010691  00000+0  70820-3 0  9999
2 40021  98.0896 159.0633 0015174  84.2613 276.0343 15.07414473544990
NANOSATC-BR1            
1 40024U 14033Q   24174.86531555  .00008540  00000+0  63090-3 0  9994
2 40024  98.0643 147.2028 0007632 139.7934 220.3856 15.03470894544101
QB50P1                  
1 40025U 14033R   24174.88793225  .00005768  00000+0  47011-3 0  9995
2 40025  98.0382 135.8315 0012899 139.7849 220.4330 14.99828809543733
QB50P2                  
1 40032U 14033Y   24174.86159265  .00005439  00000+0  45891-3 0  9990
2 40032  98.0060 127.4622 0010566 133.3767 226.8336 14.98537249543527
PERSEUS-M2              
1 40037U 14033AD  24174.86676396  .00001905  00000+0  20064-3 0  9993
2 40037  97.9273 105.6771 0013303 169.6780 190.4713 14.90512362542679
PERSEUS-M1              
1 40039U 14033AF  24174.75857461  .00002279  00000+0  24015-3 0  9992
2 40039  97.9077 101.6086 0013158 169.1496 191.0008 14.90290448542510
POLYITAN-1              
1 40042U 14033AJ  24174.88015195  .00007929  00000+0  59801-3 0  9998
2 40042  98.0698 139.3987 0015704 109.9669 250.3248 15.02639615543698
TIGRISAT                
1 40043U 14033AK  24175.16038051  .00001966  00000+0  26692-3 0  9994
2 40043  97.6957 337.6318 0053912 284.3629  75.1602 14.78968722538642
AEROCUBE 6A             
1 40045U 14033AM  24174.92699879  .00004478  00000+0  53858-3 0  9995
2 40045  97.6697 348.1795 0049066 262.3866  97.1774 14.83559283538643
AEROCUBE 6B             
1 40046U 14033AN  24174.89197162  .00005234  00000+0  61582-3 0  9994
2 40046  97.6661 346.8554 0047743 257.6709 101.9159 14.84433075538693
UKUBE-1                 
1 40074U 14037F   24174.76163919  .00007054  00000+0  66800-3 0  9998
2 40074  98.3438 105.0276 0005929  66.3790 293.8050 14.93946837539614
BRITE-PL2 (HEWELIUSZ)   
1 40119U 14049B   24175.19858473  .00001846  00000+0  20225-3 0  9999
2 40119  97.8839 274.8373 0015316 349.5613  10.5284 14.88927398533563
CP10 (EXOCUBE)          
1 40380U 15003E   24175.11641166  .00806418  34035-3  11010-2 0  9999
2 40380  99.0843 204.5657 0013775 105.7493 254.5303 16.06116588520406
AEROCUBE 5C             
1 40965U 15058B   24174.86311132  .00002033  00000+0  19805-3 0  9999
2 40965  64.7709 344.2242 0190716 306.3974  51.9671 14.82883314257887
AEROCUBE 7              
1 40966U 15058C   24174.87055196  .00002708  00000+0  24947-3 0  9998
2 40966  64.7684 337.9165 0185591 306.0182  52.3846 14.84779257257955
FOX-1A (AO-85)          
1 40967U 15058D   24174.85849816  .00002046  00000+0  20272-3 0  9999
2 40967  64.7784 358.1202 0190140 302.2031  56.0762 14.82282228  5832
SINOD-D 1               
1 40968U 15058E   24174.89008931  .00002711  00000+0  25355-3 0  9995
2 40968  64.7782 350.7375 0184915 301.1677  57.1413 14.84288456  8667
SNAP-3 ALICE            
1 40970U 15058G   24174.78064341  .00009215  00000+0  64412-3 0  9996
2 40970  64.7721 308.0253 0155759 299.1319  59.4280 14.96462430  6627
LMRST-SAT               
1 40971U 15058H   24174.90100994  .00001966  00000+0  19505-3 0  9994
2 40971  64.7772 353.5203 0191238 303.5794  54.7182 14.82223030  5841
SNAP-3 EDDIE            
1 40972U 15058J   24174.72265753  .00008801  00000+0  60869-3 0  9994
2 40972  64.7700 301.6073 0156279 300.1011  58.4688 14.96819115  8714
PROPCUBE 3              
1 40973U 15058K   24174.85216414  .00002397  00000+0  22564-3 0  9993
2 40973  64.7720 341.4381 0187678 304.9376  53.4224 14.84035188  6877
BISONSAT                
1 40974U 15058L   24174.87375053  .00005429  00000+0  42515-3 0  9998
2 40974  64.7693 315.5316 0169294 302.5767  55.9093 14.91398001  6616
SNAP-3 JIMI             
1 40975U 15058M   24174.86043623  .00003530  00000+0  30554-3 0  9994
2 40975  64.7707 329.3945 0179843 303.8904  54.5209 14.87195849  5873
PROPCUBE 1 (FLORA)      
1 40976U 15058N   24175.03483865  .00002001  00000+0  20555-3 0  9993
2 40976  64.7765   8.5663 0189160 304.7729  53.5698 14.81096595  8662
SINOD-D 3               
1 40977U 15058P   24175.01654230  .00002556  00000+0  24870-3 0  9997
2 40977  64.7756   1.8773 0183864 303.9459  54.4286 14.83086287  6892
VELOX-II                
1 41171U 15077F   24174.67247742  .00232730  00000+0  12676-2 0  9991
2 41171  14.9870   8.6196 0002498  36.9375 323.1126 15.77870409472651
HORYU-4                 
1 41340U 16012D   24174.73310483  .00010976  00000+0  54156-3 0  9995
2 41340  31.0040 299.4593 0010117  31.7782 328.3467 15.16593195458994
RAVAN                   
1 41849U 16067B   24174.46374372  .00007816  00000+0  43050-3 0  9996
2 41849  98.0636 352.4631 0012929  16.3696 343.7949 15.14254229416788
CELTEE 1                
1 41850U 16067C   24174.94433231  .00005445  00000+0  37145-3 0  9995
2 41850  98.1028 344.7371 0001705 131.9367 228.2004 15.06670338416299
OPTICUBE 04             
1 41851U 16067D   24174.94599542  .00003771  00000+0  28570-3 0  9996
2 41851  98.0754 340.1231 0018359  38.3162 321.9362 15.02802105416109
AEROCUBE 8D             
1 41852U 16067E   24174.92912041  .00006063  00000+0  39939-3 0  9996
2 41852  98.1076 344.4874 0006308  91.9829 268.2119 15.07906887416261
AEROCUBE 8C             
1 41853U 16067F   24174.94283873  .00006418  00000+0  42290-3 0  9991
2 41853  98.0888 343.0664 0008060  28.5063 331.6603 15.07860784416254
PROMETHEUS 2-1          
1 41854U 16067G   24174.89945683  .00013928  00000+0  70232-3 0  9991
2 41854  98.0991 350.4667 0012606  42.5435 317.6771 15.17206848416600
PROMETHEUS 2-3          
1 41855U 16067H   24174.96180421  .00014055  00000+0  70960-3 0  9991
2 41855  98.0922 350.0159 0010898  52.9085 307.3141 15.17177873416617
DIDO-2                  
1 42000U 17008BE  24174.71125707  .00339220  47146-4  88084-3 0  9996
2 42000  97.1264 236.9279 0004596 190.1592 169.9592 15.95024218409681
AALTO-1                 
1 42775U 17036L   24174.63942175  .00092968  00000+0  78597-3 0  9999
2 42775  97.1008 204.3463 0007697 162.3557 197.7974 15.69422399389961
URSA MAIOR              
1 42776U 17036M   24175.14943760  .00739076  27591-3  10688-2 0  9990
2 42776  97.0912 209.8704 0009958 200.9293 159.1583 16.05280316390367
CORVUS BC2              
1 42846U 17042X   24174.46714398  .00003982  00000+0  34352-3 0  9999
2 42846  97.3740 359.2749 0009510  51.1867 309.0203 14.97774833378231
CORVUS BC1              
1 42847U 17042Y   24175.16245623  .00002599  00000+0  22502-3 0  9995
2 42847  97.3724   0.3364 0008803  43.1836 317.0076 14.97929718378356
MIRATA                  
1 43015U 17073C   24175.17852978  .00012776  00000+0  60229-3 0  9991
2 43015  97.5941  59.8543 0167453 240.1277 118.3222 15.07985258357232
MAKERSAT 0              
1 43016U 17073D   24174.63318816  .00007115  00000+0  40734-3 0  9990
2 43016  97.5811  53.4689 0193130 264.0928  93.8253 14.98471296356724
GOMX-4B                 
1 43196U 18015E   24174.92412781  .00053745  00000+0  55756-3 0  9994
2 43196  97.6055 348.9812 0006681 279.1503  80.9000 15.64478211356426
GOMX-4A                 
1 43197U 18015F   24175.18436151  .00110839  00000+0  65410-3 0  9997
2 43197  97.5950 354.5013 0006503 256.0918 103.9624 15.77808119356823
CICERO 10               
1 43690U 18088A   24175.00048501  .00326979  00000+0  12249-2 0  9999
2 43690  85.0031 175.0258 0008078 182.6609 177.4626 15.87064996313111
SIRION PATHFINDER-2     
1 43759U 18099B   24174.88633553  .00004446  00000+0  33583-3 0  9996
2 43759  97.5297 230.8694 0009042 263.7624  96.2572 15.02852759303366
CORVUS BC4              
1 43767U 18099K   24174.72229283  .00003418  00000+0  26407-3 0  9994
2 43767  97.5104 227.9156 0009368 339.2268  20.8575 15.02149948303226
MOVE-II                 
1 43780U 18099Y   24174.70204829  .00016841  00000+0  87771-3 0  9991
2 43780  97.5215 237.6383 0004792 322.3116  37.7780 15.16043063303765
SPACEBEE-7              
1 43816U 18099BL  24174.76408095  .00010353  00000+0  60932-3 0  9990
2 43816  97.5483 238.3955 0008385 263.3594  96.6682 15.11796668303251
SPACEBEE-6              
1 43818U 18099BN  24174.73265039  .00027411  00000+0  11382-2 0  9995
2 43818  97.5405 243.8059 0007503 256.6019 103.4381 15.23777322303758
SHIELDS 1               
1 43850U 18104B   24174.78415685  .00012587  00000+0  33497-3 0  9997
2 43850  85.0236 279.3089 0011855  58.7452 301.4958 15.37994436307028
SONATE                  
1 44400U 19038Q   24174.94241628  .00018091  00000+0  54191-3 0  9998
2 44400  97.7113 169.2945 0018241  87.9847 272.3484 15.34408609274965
LUCKY-7                 
1 44406U 19038W   24174.93779877  .00034433  00000+0  73487-3 0  9992
2 44406  97.7006 173.4733 0015093  76.3141 283.9786 15.44685344275255
DUCHIFAT-3              
1 44854U 19089C   24174.91909833  .00013446  00000+0  67633-3 0  9997
2 44854  36.9580  14.2110 0004303 138.3448 221.7627 15.16622280249070
M2 PATHFINDER           
1 45727U 20037E   24175.06725649  .00002443  00000+0  21598-3 0  9995
2 45727  97.7764 351.4703 0012449 102.8707 257.3906 14.97211958216823
NETSAT-4                
1 46504U 20068U   24174.88213174  .00009072  00000+0  48383-3 0  9993
2 46504  97.8065 132.1763 0009436 356.2570   3.8589 15.15371062205033
